ORBCOMM FM33            
1 25983U 99065D   25246.76295394  .00001889  00000+0  63705-3 0  9999
2 25983  45.0301 345.3438 0007484 110.5832 249.5821 14.40147196347399
ORBCOMM FM36            
1 25984U 99065E   25246.83011191  .00002359  00000+0  81451-3 0  9990
2 25984  45.0385  78.1605 0002558 350.0062  10.0735 14.38296890345747
ORBCOMM FM35            
1 25985U 99065F   25245.89341863  .00001985  00000+0  70755-3 0  9997
2 25985  45.0392  88.2546 0004320  67.7331 292.3975 14.37245697345965
ORBCOMM FM34            
1 25986U 99065G   25246.90122116  .00001544  00000+0  56061-3 0  9994
2 25986  45.0388  83.9411 0004079  27.2847 332.8215 14.37251917346227
ORBCOMM FM38            
1 33060U 08031A   25246.45113424  .00004077  00000+0  53990-3 0  9993
2 33060  48.4401 302.2011 0004827   7.5874 352.5114 14.81601142926350
ORBCOMM FM41            
1 33061U 08031B   25246.91337954  .00002959  00000+0  40334-3 0  9996
2 33061  48.4438 308.0499 0004233 351.9739 179.0704 14.81177041925905
ORBCOMM FM29            
1 33062U 08031C   25246.45786052  .00004167  00000+0  55532-3 0  9992
2 33062  48.4393 317.9317 0005865 352.6172  21.5365 14.81289747925759
ORBCOMM FM39            
1 33063U 08031D   25246.56338410  .00003535  00000+0  49201-3 0  9990
2 33063  48.4409 342.5681 0007050 326.4759  33.5709 14.79809961925404
